0 DELTA 1 DEB
1 10657U 76077T   13280.86014245 -.00000011  00000-0  28338-3 0  8832
2 10657 102.0078 287.1495 0083908 064.2724 055.3745 12.25580372664626
0 DELTA 1 DEB
1 10657U 76077T   13282.96760492 -.00000004  00000-0  34091-3 0  8843
2 10657 102.0075 289.1720 0083861 060.4784 353.6696 12.25580620664881
0 DELTA 1 DEB
1 10657U 76077T   13285.52404211 -.00000002  00000-0  35986-3 0  8855
2 10657 102.0071 291.6254 0083856 055.8608 112.8943 12.25580625665194
0 DELTA 1 DEB
1 10657U 76077T   13287.63424076 -.00000034  00000-0  76820-4 0  8869
2 10657 102.0069 293.6504 0083854 052.0451 063.2787 12.25581049665459
0 DELTA 1 DEB
1 10657U 76077T   13289.98806354 -.00000045  00000-0 -25348-4 0  8875
2 10657 102.0070 295.9090 0083841 047.7877 008.5594 12.25581116665740
0 DELTA 1 DEB
1 10657U 76077T   13292.02174758 -.00000042  00000-0  72863-5 0  8882
2 10657 102.0073 297.8604 0083833 044.1060 341.3635 12.25581182665995
0 DELTA 1 DEB
1 10657U 76077T   13294.50309919 -.00000038  00000-0  37370-4 0  8895
2 10657 102.0075 300.2412 0083804 039.6286 129.3041 12.25581172666298
